[{"OBJECT_NAME":"GEOSCAN 4 (RS92S4)","OBJECT_ID":"2025-155S","EPOCH":"2026-03-09T21:50:07.724832","MEAN_MOTION":15.30369837,"ECCENTRICITY":0.00070968,"INCLINATION":97.4465,"RA_OF_ASC_NODE":37.7626,"ARG_OF_PERICENTER":154.7045,"MEAN_ANOMALY":205.4544,"EPHEMERIS_TYPE":0,"CLASSIFICATION_TYPE":"U","NORAD_CAT_ID":64892,"ELEMENT_SET_NO":999,"REV_AT_EPOCH":6562,"BSTAR":0.00068609503,"MEAN_MOTION_DOT":0.00020121,"MEAN_MOTION_DDOT":0},{"OBJECT_NAME":"STARLINK-35517","OBJECT_ID":"2025-245L","EPOCH":"2026-03-09T21:35:07.028160","MEAN_MOTION":15.30203063,"ECCENTRICITY":0.00011293,"INCLINATION":53.1572,"RA_OF_ASC_NODE":282.5658,"ARG_OF_PERICENTER":125.5948,"MEAN_ANOMALY":234.5158,"EPHEMERIS_TYPE":0,"CLASSIFICATION_TYPE":"U","NORAD_CAT_ID":66244,"ELEMENT_SET_NO":999,"REV_AT_EPOCH":2108,"BSTAR":0.00071963644,"MEAN_MOTION_DOT":0.00021017,"MEAN_MOTION_DDOT":0}]
